{
  "norad_id": 47202,
  "name": "LUCAS (JDRS-1)",
  "history": [
    {
      "epoch": "2026-05-03T20:32:37.517856Z",
      "apogee_km": 35797.07384221643,
      "perigee_km": 35776.26129468145,
      "latitude_deg": -0.021165818955903574,
      "longitude_deg": 90.76796952070009,
      "height_km": 35794.83414678721,
      "semi_major_axis_km": 42164.80456844894,
      "eccentricity": 0.0002468,
      "inclination_deg": 0.05,
      "raan_deg": 81.252,
      "arg_perigee_deg": 325.4683,
      "mean_anomaly_deg": 213.9798,
      "mean_motion_rev_day": 1.00271526
    },
    {
      "epoch": "2026-05-04T17:12:21.638304Z",
      "apogee_km": 35797.16249243366,
      "perigee_km": 35776.31617757363,
      "latitude_deg": 0.0037965475173647356,
      "longitude_deg": 90.79044706505212,
      "height_km": 35796.2623960989,
      "semi_major_axis_km": 42164.876335003646,
      "eccentricity": 0.0002472,
      "inclination_deg": 0.0498,
      "raan_deg": 82.4404,
      "arg_perigee_deg": 325.7573,
      "mean_anomaly_deg": 163.2835,
      "mean_motion_rev_day": 1.0027127
    },
    {
      "epoch": "2026-05-05T21:03:36.493344Z",
      "apogee_km": 35798.097341701876,
      "perigee_km": 35775.682413413764,
      "latitude_deg": -0.01050664418219816,
      "longitude_deg": 90.7595161278741,
      "height_km": 35793.950859035445,
      "semi_major_axis_km": 42165.02687755782,
      "eccentricity": 0.0002658,
      "inclination_deg": 0.0176,
      "raan_deg": 290.8954,
      "arg_perigee_deg": 111.7136,
      "mean_anomaly_deg": 227.8282,
      "mean_motion_rev_day": 1.00270733
    },
    {
      "epoch": "2026-05-06T19:44:06.642240Z",
      "apogee_km": 35798.12349558176,
      "perigee_km": 35775.87716912521,
      "latitude_deg": -0.020135178442788598,
      "longitude_deg": 90.7636417509444,
      "height_km": 35796.3762251216,
      "semi_major_axis_km": 42165.13733235349,
      "eccentricity": 0.0002638,
      "inclination_deg": 0.0138,
      "raan_deg": 295.2669,
      "arg_perigee_deg": 108.3674,
      "mean_anomaly_deg": 207.8555,
      "mean_motion_rev_day": 1.00270339
    },
    {
      "epoch": "2026-05-07T21:02:21.861024Z",
      "apogee_km": 35798.14092602411,
      "perigee_km": 35776.08849937837,
      "latitude_deg": -0.009797130423333722,
      "longitude_deg": 90.74883757897659,
      "height_km": 35794.05592273344,
      "semi_major_axis_km": 42165.25171270125,
      "eccentricity": 0.0002615,
      "inclination_deg": 0.0109,
      "raan_deg": 302.0596,
      "arg_perigee_deg": 102.2548,
      "mean_anomaly_deg": 227.7717,
      "mean_motion_rev_day": 1.00269931
    },
    {
      "epoch": "2026-05-08T18:36:56.147040Z",
      "apogee_km": 35798.09848394634,
      "perigee_km": 35776.35802162201,
      "latitude_deg": -0.020624042830905784,
      "longitude_deg": 90.75786052686453,
      "height_km": 35797.430944110354,
      "semi_major_axis_km": 42165.36525278418,
      "eccentricity": 0.0002578,
      "inclination_deg": 0.0093,
      "raan_deg": 308.6631,
      "arg_perigee_deg": 96.8063,
      "mean_anomaly_deg": 191.1388,
      "mean_motion_rev_day": 1.00269526
    },
    {
      "epoch": "2026-05-09T18:51:22.396032Z",
      "apogee_km": 35795.4053008786,
      "perigee_km": 35775.20058045903,
      "latitude_deg": -0.016359290433602108,
      "longitude_deg": 90.76293691478352,
      "height_km": 35794.76041354331,
      "semi_major_axis_km": 42163.43994066882,
      "eccentricity": 0.0002396,
      "inclination_deg": 0.0078,
      "raan_deg": 319.7769,
      "arg_perigee_deg": 90.726,
      "mean_anomaly_deg": 190.7159,
      "mean_motion_rev_day": 1.00276394
    }
  ]
}